[{"OBJECT_NAME":"KUIPER-00029","OBJECT_ID":"2025-088U","EPOCH":"2026-03-09T22:00:01.999584","MEAN_MOTION":14.81069355,"ECCENTRICITY":9.383e-5,"INCLINATION":51.9005,"RA_OF_ASC_NODE":89.6043,"ARG_OF_PERICENTER":137.8854,"MEAN_ANOMALY":294.3831,"EPHEMERIS_TYPE":0,"CLASSIFICATION_TYPE":"U","NORAD_CAT_ID":63742,"ELEMENT_SET_NO":999,"REV_AT_EPOCH":574,"BSTAR":0.002151491,"MEAN_MOTION_DOT":0.00016671,"MEAN_MOTION_DDOT":0},{"OBJECT_NAME":"USA 58","OBJECT_ID":"1990-031C","EPOCH":"2026-03-09T14:12:58.888800","MEAN_MOTION":14.76275196,"ECCENTRICITY":0.0060635,"INCLINATION":89.8495,"RA_OF_ASC_NODE":265.0976,"ARG_OF_PERICENTER":299.7178,"MEAN_ANOMALY":59.8017,"EPHEMERIS_TYPE":0,"CLASSIFICATION_TYPE":"U","NORAD_CAT_ID":20562,"ELEMENT_SET_NO":999,"REV_AT_EPOCH":9895,"BSTAR":0.00013881,"MEAN_MOTION_DOT":1.006e-5,"MEAN_MOTION_DDOT":0}]
